NORAD_CAT_ID,OBJECT_NAME,OBJECT_TYPE,EPOCH,MEAN_MOTION,ECCENTRICITY,INCLINATION,RA_OF_ASC_NODE,ARG_OF_PERICENTER,MEAN_ANOMALY,BSTAR,MEAN_MOTION_DOT,MEAN_MOTION_DDOT,TLE_LINE0,TLE_LINE1,TLE_LINE2,SEMIMAJOR_AXIS,PERIOD,APOGEE,PERIGEE,DECAYED
52370.0,STARLINK-3827,PAYLOAD,2022-12-08 16:22:45,15.08848241,0.0002791,53.2167,117.8066,49.4804,310.6431,0.00017473,2.494e-05,0.0,0 STARLINK-3827,1 52370U 22045AR  22342.68246843  .00002494  00000-0  17473-3 0  9998,2 52370  53.2167 117.8066 0002791  49.4804 310.6431 15.08848241 36727,6917.855,95.437,541.651,537.789,0.0
52370.0,STARLINK-3827,PAYLOAD,2022-12-09 13:02:46,15.08830711,0.0002563,53.2172,113.9421,38.9966,321.121,-5.770000000000001e-05,-1.206e-05,0.0,0 STARLINK-3827,1 52370U 22045AR  22343.54359273 -.00001206  00000-0 -57700-4 0  9996,2 52370  53.2172 113.9421 0002563  38.9966 321.1210 15.08830711 36853,6917.909000000002,95.438,541.547,538.001,0.0
52370.0,STARLINK-3827,PAYLOAD,2022-12-10 14:28:56,15.08849469,0.0002712,53.2169,109.1836,47.8709,312.2513,0.00029076,4.343e-05,0.0,0 STARLINK-3827,1 52370U 22045AR  22344.60342890  .00004343  00000-0  29076-3 0  9998,2 52370  53.2169 109.1836 0002712  47.8709 312.2513 15.08849469 37012,6917.851,95.437,541.5930000000002,537.84,0.0
52370.0,STARLINK-3827,PAYLOAD,2022-12-10 19:15:06,15.08839755,0.000282,53.2172,108.292,45.253,314.8691,0.00028185,4.2e-05,0.0,0 STARLINK-3827,1 52370U 22045AR  22344.80215355  .00004200  00000-0  28185-3 0  9997,2 52370  53.2172 108.2920 0002820  45.2530 314.8691 15.08839755 37049,6917.880999999999,95.438,541.697,537.795,0.0
52370.0,STARLINK-3827,PAYLOAD,2022-12-11 12:44:20,15.08844801,0.0002761,53.2172,105.0206,45.0983,315.0233,0.00036223,5.482e-05,0.0,0 STARLINK-3827,1 52370U 22045AR  22345.53079318  .00005482  00000-0  36223-3 0  9990,2 52370  53.2172 105.0206 0002761  45.0983 315.0233 15.08844801 37150,6917.866,95.437,541.641,537.821,0.0
52370.0,STARLINK-3827,PAYLOAD,2022-12-11 17:30:29,15.08842089,0.0002804,53.2169,104.129,44.151,315.9706,0.00024028,3.538e-05,0.0,0 STARLINK-3827,1 52370U 22045AR  22345.72951381  .00003538  00000-0  24028-3 0  9990,2 52370  53.2169 104.1290 0002804  44.1510 315.9706 15.08842089 37186,6917.874,95.437,541.679,537.799,0.0
52370.0,STARLINK-3827,PAYLOAD,2022-12-12 12:35:07,15.08846119,0.0002572,53.2171,100.5604,46.0423,314.0781,0.00031161,4.675e-05,0.0,0 STARLINK-3827,1 52370U 22045AR  22346.52439175  .00004675  00000-0  31161-3 0  9990,2 52370  53.2171 100.5604 0002572  46.0423 314.0781 15.08846119 37309,6917.861999999999,95.437,541.506,537.947,0.0
52370.0,STARLINK-3827,PAYLOAD,2022-12-12 17:21:16,15.08845177,0.0002538,53.2171,99.6685,46.6446,313.4758,0.00021099,3.072e-05,0.0,0 STARLINK-3827,1 52370U 22045AR  22346.72311148  .00003072  00000-0  21099-3 0  9990,2 52370  53.2171  99.6685 0002538  46.6446 313.4758 15.08845177 37332,6917.865,95.437,541.485,537.974,0.0
52370.0,STARLINK-3827,PAYLOAD,2022-12-13 14:01:17,15.088396,0.0002737,53.2178,95.8022,46.3907,313.7312,8.237e-05,1.023e-05,0.0,0 STARLINK-3827,1 52370U 22045AR  22347.58423430  .00001023  00000-0  82370-4 0  9997,2 52370  53.2178  95.8022 0002737  46.3907 313.7312 15.08839600 37469,6917.882,95.438,541.64,537.8530000000002,0.0
52370.0,STARLINK-3827,PAYLOAD,2022-12-13 17:12:04,15.08836641,0.0002586,53.2178,95.207,46.1799,313.9407,3.576e-05,2.81e-06,0.0,0 STARLINK-3827,1 52370U 22045AR  22347.71671619  .00000281  00000-0  35760-4 0  9992,2 52370  53.2178  95.2070 0002586  46.1799 313.9407 15.08836641 37486,6917.891,95.438,541.545,537.967,0.0
52370.0,STARLINK-3827,PAYLOAD,2022-12-14 13:52:04,15.08855776,0.0002598,53.2169,91.3428,41.1644,318.9544,-7.6722e-05,-1.51e-05,0.0,0 STARLINK-3827,1 52370U 22045AR  22348.57782570 -.00001510  00000-0 -76722-4 0  9997,2 52370  53.2169  91.3428 0002598  41.1644 318.9544 15.08855776 37619,6917.831999999999,95.437,541.494,537.9,0.0
52370.0,STARLINK-3827,PAYLOAD,2022-12-14 15:27:27,15.0884723,0.0002524,53.2173,91.0454,41.7815,318.337,0.00020565,2.987e-05,0.0,0 STARLINK-3827,1 52370U 22045AR  22348.64406986  .00002987  00000-0  20565-3 0  9999,2 52370  53.2173  91.0454 0002524  41.7815 318.3370 15.08847230 37623,6917.858,95.437,541.469,537.977,0.0
52370.0,STARLINK-3827,PAYLOAD,2022-12-14 23:24:23,15.08841592,0.0002576,53.2168,89.5586,40.0324,320.0858,4.312899999999999e-05,3.98e-06,0.0,0 STARLINK-3827,1 52370U 22045AR  22348.97527222  .00000398  00000-0  43129-4 0  9998,2 52370  53.2168  89.5586 0002576  40.0324 320.0858 15.08841592 37670,6917.876,95.437,541.523,537.9580000000002,0.0
52370.0,STARLINK-3827,PAYLOAD,2022-12-15 13:42:51,15.08839066,0.0002536,53.2174,86.8823,36.3128,323.8036,4.4224e-05,4.15e-06,0.0,0 STARLINK-3827,1 52370U 22045AR  22349.57143292  .00000415  00000-0  44224-4 0  9993,2 52370  53.2174  86.8823 0002536  36.3128 323.8036 15.08839066 37769,6917.8830000000025,95.438,541.503,537.994,0.0
52370.0,STARLINK-3827,PAYLOAD,2022-12-15 16:53:38,15.08834147,0.0002618,53.2172,86.2884,36.1142,324.0026,-3.4847e-05,-8.43e-06,0.0,0 STARLINK-3827,1 52370U 22045AR  22349.70391592 -.00000843  00000-0 -34847-4 0  9993,2 52370  53.2172  86.2884 0002618  36.1142 324.0026 15.08834147 37782,6917.898,95.438,541.5740000000002,537.952,0.0
52370.0,STARLINK-3827,PAYLOAD,2022-12-15 23:15:10,15.08834553,0.0002608,53.2173,85.09899999999998,36.1301,323.9867,-4.809e-05,-1.054e-05,0.0,0 STARLINK-3827,1 52370U 22045AR  22349.96887591 -.00001054  00000-0 -48090-4 0  9990,2 52370  53.2173  85.0990 0002608  36.1301 323.9867 15.08834553 37821,6917.897,95.438,541.566,537.9580000000002,0.0
52370.0,STARLINK-3827,PAYLOAD,2022-12-16 13:33:39,15.08839174,0.000244,53.2181,82.4229,36.7701,323.3458,2.0605e-05,4e-07,0.0,0 STARLINK-3827,1 52370U 22045AR  22350.56503779  .00000040  00000-0  20605-4 0  9995,2 52370  53.2181  82.4229 0002440  36.7701 323.3458 15.08839174 37914,6917.8830000000025,95.438,541.436,538.06,0.0
52370.0,STARLINK-3827,PAYLOAD,2022-12-16 15:09:02,15.08840123,0.0002517,53.2182,82.1254,36.0854,324.0308,2.3669e-05,8.8e-07,0.0,0 STARLINK-3827,1 52370U 22045AR  22350.63127718  .00000088  00000-0  23669-4 0  9993,2 52370  53.2182  82.1254 0002517  36.0854 324.0308 15.08840123 37926,6917.88,95.438,541.486,538.004,0.0
52370.0,STARLINK-3827,PAYLOAD,2022-12-17 00:41:21,15.08837024,0.0002462,53.2183,80.3416,35.7509,324.3647,-3.589e-05,-8.599999999999999e-06,0.0,0 STARLINK-3827,1 52370U 22045AR  22351.02872134 -.00000860  00000-0 -35890-4 0  9995,2 52370  53.2183  80.3416 0002462  35.7509 324.3647 15.08837024 37980,6917.889,95.438,541.4580000000002,538.0509999999998,0.0
52370.0,STARLINK-3827,PAYLOAD,2022-12-17 11:49:03,15.0883342,0.0002405,53.2187,78.2585,31.5251,328.5885,-1.9936e-05,-6.06e-06,0.0,0 STARLINK-3827,1 52370U 22045AR  22351.49240491 -.00000606  00000-0 -19936-4 0  9992,2 52370  53.2187  78.2585 0002405  31.5251 328.5885 15.08833420 38057,6917.901,95.438,541.429,538.102,0.0
52370.0,STARLINK-3827,PAYLOAD,2022-12-17 13:24:26,15.08835562,0.0002395,53.2185,77.9612,33.0288,327.0853,-2.4317e-05,-6.75e-06,0.0,0 STARLINK-3827,1 52370U 22045AR  22351.55864394 -.00000675  00000-0 -24317-4 0  9998,2 52370  53.2185  77.9612 0002395  33.0288 327.0853 15.08835562 38066,6917.894,95.438,541.4159999999998,538.102,0.0
52370.0,STARLINK-3827,PAYLOAD,2022-12-18 05:18:19,15.08824474,0.0002509,53.2188,74.9882,32.1071,328.0074,1.614e-05,-3.2e-07,0.0,0 STARLINK-3827,1 52370U 22045AR  22352.22105731 -.00000032  00000-0  16140-4 0  9997,2 52370  53.2188  74.9882 0002509  32.1071 328.0074 15.08824474 38169,6917.928000000001,95.439,541.529,538.057,0.0
52370.0,STARLINK-3827,PAYLOAD,2022-12-18 11:39:51,15.08828025,0.0002947,53.2183,73.8002,16.1117,343.9968,5.1929e-05,5.38e-06,0.0,0 STARLINK-3827,1 52370U 22045AR  22352.48601669  .00000538  00000-0  51929-4 0  9990,2 52370  53.2183  73.8002 0002947  16.1117 343.9968 15.08828025 38204,6917.917,95.438,541.821,537.743,0.0
52370.0,STARLINK-3827,PAYLOAD,2022-12-18 13:15:14,15.08829011,0.0002827,53.2185,73.5026,21.4895,338.6215,8.035e-05,9.9e-06,0.0,0 STARLINK-3827,1 52370U 22045AR  22352.55225585  .00000990  00000-0  80350-4 0  9999,2 52370  53.2185  73.5026 0002827  21.4895 338.6215 15.08829011 38211,6917.9140000000025,95.438,541.735,537.823,0.0
52370.0,STARLINK-3827,PAYLOAD,2022-12-19 05:09:05,15.08838151,0.0002374,53.2185,70.528,29.8127,330.3,8.708299999999999e-05,1.098e-05,0.0,0 STARLINK-3827,1 52370U 22045AR  22353.21465241  .00001098  00000-0  87083-4 0  9998,2 52370  53.2185  70.5280 0002374  29.8127 330.3000 15.08838151 38314,6917.886,95.438,541.393,538.109,0.0
52370.0,STARLINK-3827,PAYLOAD,2022-12-19 11:30:38,15.08839056,0.0002385,53.2186,69.3386,30.3589,329.7541,9.3261e-05,1.196e-05,0.0,0 STARLINK-3827,1 52370U 22045AR  22353.47961267  .00001196  00000-0  93261-4 0  9999,2 52370  53.2186  69.3386 0002385  30.3589 329.7541 15.08839056 38350,6917.8830000000025,95.438,541.398,538.0980000000002,0.0
52370.0,STARLINK-3827,PAYLOAD,2022-12-19 13:06:00,15.08845809,0.0002314,53.2183,69.0411,31.5174,328.5956,0.00024574,3.626e-05,0.0,0 STARLINK-3827,1 52370U 22045AR  22353.54584450  .00003626  00000-0  24574-3 0  9992,2 52370  53.2183  69.0411 0002314  31.5174 328.5956 15.08845809 38369,6917.863,95.437,541.328,538.127,0.0
52370.0,STARLINK-3827,PAYLOAD,2022-12-20 11:21:25,15.08842344,0.0002094,53.2182,64.8766,38.4579,321.6562,0.00010795,1.4300000000000004e-05,0.0,0 STARLINK-3827,1 52370U 22045AR  22354.47321003  .00001430  00000-0  10795-3 0  9999,2 52370  53.2182  64.8766 0002094  38.4579 321.6562 15.08842344 38508,6917.873000000001,95.437,541.187,538.29,0.0
52370.0,STARLINK-3827,PAYLOAD,2022-12-21 04:50:40,15.08830985,0.0002389,53.2172,61.609,33.7961,326.3183,-6.738399999999999e-05,-1.36e-05,0.0,0 STARLINK-3827,1 52370U 22045AR  22355.20186330 -.00001360  00000-0 -67384-4 0  9994,2 52370  53.2172  61.6090 0002389  33.7961 326.3183 15.08830985 38613,6917.908,95.438,541.4259999999998,538.12,0.0
